[{"OBJECT_NAME":"HAWK-9B","OBJECT_ID":"2024-066J","EPOCH":"2026-03-09T10:21:05.061312","MEAN_MOTION":14.9877824,"ECCENTRICITY":0.00037519,"INCLINATION":45.6215,"RA_OF_ASC_NODE":73.5456,"ARG_OF_PERICENTER":229.3903,"MEAN_ANOMALY":130.6652,"EPHEMERIS_TYPE":0,"CLASSIFICATION_TYPE":"U","NORAD_CAT_ID":59450,"ELEMENT_SET_NO":999,"REV_AT_EPOCH":10486,"BSTAR":0.00023214291,"MEAN_MOTION_DOT":2.608e-5,"MEAN_MOTION_DDOT":0},{"OBJECT_NAME":"STARLINK-34027","OBJECT_ID":"2025-098L","EPOCH":"2026-03-09T22:26:25.938816","MEAN_MOTION":14.98334092,"ECCENTRICITY":0.00024299,"INCLINATION":70.0009,"RA_OF_ASC_NODE":273.6539,"ARG_OF_PERICENTER":265.762,"MEAN_ANOMALY":94.3262,"EPHEMERIS_TYPE":0,"CLASSIFICATION_TYPE":"U","NORAD_CAT_ID":63936,"ELEMENT_SET_NO":999,"REV_AT_EPOCH":4659,"BSTAR":0.00014169291,"MEAN_MOTION_DOT":1.598e-5,"MEAN_MOTION_DDOT":0}]
